STARLINK-35338          
1 66250U 25245S   25317.58335648 -.00070452  00000+0 -48083-3 0  9992
2 66250  53.1567 108.4300 0001047  92.2358  16.8244 15.74185808  3325
STARLINK-35485          
1 66251U 25245T   25317.58335648 -.00151456  00000+0 -10456-2 0  9999
2 66251  53.1570 108.4263 0001144  91.2974  19.6679 15.74251343  3218
STARLINK-35483          
1 66252U 25245U   25317.58335648 -.00133415  00000+0 -91875-3 0  9990
2 66252  53.1570 108.4172 0001122  68.7009  46.1151 15.74248106  3372
STARLINK-35486          
1 66253U 25245V   25317.58335648 -.00148673  00000+0 -10255-2 0  9995
2 66253  53.1569 108.4140 0001211 100.1688  16.5543 15.74261556  3212
STARLINK-35488          
1 66254U 25245W   25317.58335648 -.00196068  00000+0 -13597-2 0  9999
2 66254  53.1571 108.4092 0001183  91.2659  27.3488 15.74291604  3426
STARLINK-35616          
1 66255U 25245X   25317.58335648 -.00255304  00000+0 -17837-2 0  9990
2 66255  53.1571 108.4056 0001102  72.9063  47.6543 15.74296936  3423
STARLINK-35619          
1 66256U 25245Y   25317.58335648 -.00295577  00000+0 -20721-2 0  9993
2 66256  53.1577 108.3935 0001187 101.9664  24.3233 15.74335190  3422
STARLINK-35615          
1 66257U 25245Z   25317.58335648 -.00323752  00000+0 -22773-2 0  9990
2 66257  53.1580 108.3977 0001056  64.8230  59.5694 15.74338803  3429
STARLINK-34650          
1 66258U 25245AA  25317.58335648 -.00165589  00000+0 -11451-2 0  9994
2 66258  53.1574 108.4014 0001235  86.1205  36.3374 15.74259731  3424
STARLINK-35529          
1 66259U 25245AB  25317.58335648 -.00303272  00000+0 -21291-2 0  9991
2 66259  53.1577 108.3854 0001364 122.8798   7.2547 15.74323877  3429
STARLINK-35420          
1 66260U 25245AC  25317.58335648 -.00259788  00000+0 -18153-2 0  9998
2 66260  53.1577 108.3895 0001049  81.0528  47.1579 15.74307140  3426
STARLINK-35536          
1 66261U 25245AD  25317.58335648 -.00231199  00000+0 -16098-2 0  9991
2 66261  53.1577 108.3818 0000797  59.7836  72.2467 15.74305333  3422
